ONEWEB-0054             
1 45158U 20008AD  26164.87570913  .00000429  00000+0  11919-2 0  9999
2 45158  87.8842  36.9264 0001866  83.2212 276.9127 13.10370112307598
ONEWEB-0056             
1 45159U 20008AE  26164.69465271  .00000268  00000+0  73203-3 0  9996
2 45159  87.8845  36.9565 0002012  89.5415 270.5942 13.10378582307723
ONEWEB-0057             
1 45160U 20008AF  26164.63516081  .00000685  00000+0  19249-2 0  9990
2 45160  87.8837  36.9809 0002202  74.0802 286.0568 13.10372440307887
ONEWEB-0058             
1 45161U 20008AG  26164.69823407  .00000381  00000+0  10561-2 0  9991
2 45161  87.8833  36.9743 0001598  81.9659 278.1650 13.10375923307967
ONEWEB-0059             
1 45162U 20008AH  26164.69491267  .00000194  00000+0  51856-3 0  9992
2 45162  87.8836  36.9739 0001732  77.1509 282.9812 13.10376115307863
ONEWEB-0062             
1 45163U 20008AJ  26164.71788170  .00000564  00000+0  15793-2 0  9998
2 45163  87.8839  36.9561 0001441  91.5899 268.5393 13.10370642307738
ONEWEB-0065             
1 45164U 20008AK  26164.67469994 -.00000599  00000+0 -17535-2 0  9990
2 45164  87.8841  36.9729 0002162  81.6164 278.5208 13.10372987307420
ONEWEB-0066             
1 45424U 20020A   26164.86591847 -.00000471  00000+0 -13636-2 0  9994
2 45424  87.8890  21.7327 0001715  79.7458 280.3864 13.11416535302249
ONEWEB-0067             
1 45425U 20020B   26164.82754411  .00000517  00000+0  14223-2 0  9991
2 45425  87.8910  21.6613 0001959  82.3089 277.8262 13.11423173302294
ONEWEB-0080             
1 45426U 20020C   26164.82708250  .00000537  00000+0  14795-2 0  9998
2 45426  87.8901  21.7361 0001566  92.5239 267.6068 13.11416654302264
ONEWEB-0090             
1 45427U 20020D   26164.85588711 -.00000482  00000+0 -13948-2 0  9990
2 45427  87.8899  21.7346 0001772  87.1951 272.9380 13.11415220302235
ONEWEB-0061             
1 45428U 20020E   26164.88783436  .00000366  00000+0  99790-3 0  9994
2 45428  87.8897  21.7135 0001761  84.4376 275.6953 13.11419804302192
ONEWEB-0081             
1 45429U 20020F   26164.64042116 -.00000516  00000+0 -14916-2 0  9997
2 45429  87.8895  21.7734 0001857  78.5890 281.5446 13.11418397302275
ONEWEB-0069             
1 45430U 20020G   26164.64225103 -.00000205  00000+0 -61362-3 0  9991
2 45430  87.8896  21.7756 0001846  82.2393 277.8945 13.11417602302203
ONEWEB-0031             
1 45431U 20020H   26164.83033324  .00000496  00000+0  13628-2 0  9996
2 45431  87.8886  21.7433 0001668  89.6700 270.4619 13.11416649302218
ONEWEB-0027             
1 45432U 20020J   26164.84367243  .00026767  00000+0  69668-1 0  9991
2 45432  87.9136   6.5298 0001934  93.9916 266.1436 13.16703086305919
ONEWEB-0064             
1 45433U 20020K   26164.82864015  .00000496  00000+0  13628-2 0  9996
2 45433  87.8890  21.7354 0001769  90.9456 269.1874 13.11415033302249
ONEWEB-0018             
1 45434U 20020L   26164.86071929 -.00003052  00000+0 -86473-2 0  9996
2 45434  87.8891  21.7281 0001565  77.3838 282.7465 13.11433792302190
ONEWEB-0083             
1 45435U 20020M   26164.85081208 -.00000370  00000+0 -10808-2 0  9996
2 45435  87.8896  21.7238 0001744  86.3589 273.7738 13.11415621302239
ONEWEB-0095             
1 45436U 20020N   26164.84234972 -.00000022  00000+0 -98587-4 0  9990
2 45436  87.8896  21.7341 0002437  95.3956 264.7450 13.11419483302234
ONEWEB-0092             
1 45437U 20020P   26164.64385262 -.00020022  00000+0 -56553-1 0  9994
2 45437  87.8898  21.7655 0002029  82.7902 277.3457 13.11535717302329
ONEWEB-0085             
1 45438U 20020Q   26164.85053179 -.00000353  00000+0 -10327-2 0  9992
2 45438  87.8890  21.7308 0001810  85.7619 274.3716 13.11414835302234
ONEWEB-0096             
1 45439U 20020R   26164.85237293 -.00000318  00000+0 -93318-3 0  9997
2 45439  87.8898  21.7263 0001884  88.0148 272.1195 13.11421380302226
ONEWEB-0037             
1 45440U 20020S   26164.88691911  .00000293  00000+0  78549-3 0  9992
2 45440  87.8908  21.6932 0001892  85.9454 274.1891 13.11913811302261
ONEWEB-0042             
1 45441U 20020T   26164.84206101  .00000241  00000+0  64407-3 0  9993
2 45441  87.8909  21.7246 0001916  82.4059 277.7287 13.11411869302222
ONEWEB-0098             
1 45442U 20020U   26164.83796193  .00000237  00000+0  63180-3 0  9990
2 45442  87.8894  21.7348 0001737  86.5168 273.6159 13.11415959302201
ONEWEB-0055             
1 45443U 20020V   26164.89294535  .00000539  00000+0  14863-2 0  9998
2 45443  87.8897  21.7228 0001755  86.9483 273.1845 13.11417869302182
ONEWEB-0093             
1 45444U 20020W   26164.87284022 -.00000262  00000+0 -77427-3 0  9998
2 45444  87.8897  21.7198 0001866  73.4145 286.7188 13.11418072302242
ONEWEB-0029             
1 45445U 20020X   26164.67109265  .00000571  00000+0  15738-2 0  9999
2 45445  87.8886  21.7689 0001500  59.3529 300.7747 13.11419446302198
ONEWEB-0068             
1 45446U 20020Y   26164.64368350 -.00000212  00000+0 -63482-3 0  9993
2 45446  87.8900  21.7690 0001769  78.5093 281.6234 13.11419849302133
ONEWEB-0046             
1 45447U 20020Z   26164.63533318 -.00000470  00000+0 -13627-2 0  9992
2 45447  87.8892  21.7770 0002036  79.6162 280.5195 13.11416686302141
